{"type": "FeatureCollection", "features": [ {"type": "Feature", "properties": {"norad_id": 44476, "name": "INTELSAT 39 (IS-39)", "group": "intelsat", "lat": -0.030340191299858005, "lon": -83.44099214184352, "alt_km": 35789.55550670849, "timestamp": "2025-12-13T08:49:15.361534+00:00", "meta": {"OBJECT_NAME": "INTELSAT 39 (IS-39)", "OBJECT_ID": "2019-049B", "EPOCH": "2025-12-12T21:23:38.609376", "MEAN_MOTION": 1.00270748, "ECCENTRICITY": 0.0001092, "INCLINATION": 0.0197, "RA_OF_ASC_NODE": 326.1198, "ARG_OF_PERICENTER": 176.2686, "MEAN_ANOMALY": 322.2984, "EPHEMERIS_TYPE": 0, "CLASSIFICATION_TYPE": "U", "NORAD_CAT_ID": 44476, "ELEMENT_SET_NO": 999, "REV_AT_EPOCH": 2326, "BSTAR": 0, "MEAN_MOTION_DOT": 4.6e-07, "MEAN_MOTION_DDOT": 0}, "tle": {"line1": "1 44476U 19049B   25346.89141909  .00000046  00000+0  00000+0 0  9997", "line2": "2 44476   0.0197 326.1198 0001092 176.2686 322.2984  1.00270748 23264"}}, "geometry": {"type": "Point", "coordinates": [-83.44099214184352, -0.030340191299858005]}}, {"type": "Feature", "properties": {"norad_id": 46114, "name": "GALAXY 30 (G-30)", "group": "intelsat", "lat": 0.01972939819137037, "lon": 89.61120011456508, "alt_km": 35794.89664939828, "timestamp": "2025-12-13T08:49:15.361546+00:00", "meta": {"OBJECT_NAME": "GALAXY 30 (G-30)", "OBJECT_ID": "2020-056C", "EPOCH": "2025-12-12T23:09:31.409568", "MEAN_MOTION": 1.0027306, "ECCENTRICITY": 0.00021877, "INCLINATION": 0.0021, "RA_OF_ASC_NODE": 351.2248, "ARG_OF_PERICENTER": 271.9897, "MEAN_ANOMALY": 41.0751, "EPHEMERIS_TYPE": 0, "CLASSIFICATION_TYPE": "U", "NORAD_CAT_ID": 46114, "ELEMENT_SET_NO": 999, "REV_AT_EPOCH": 1942, "BSTAR": 0, "MEAN_MOTION_DOT": 4.9e-07, "MEAN_MOTION_DDOT": 0}, "tle": {"line1": "1 46114U 20056C   25346.96494687  .00000049  00000+0  00000+0 0  9993", "line2": "2 46114   0.0021 351.2248 0002187 271.9897  41.0751  1.00273060 19420"}}, "geometry": {"type": "Point", "coordinates": [89.61120011456508, 0.01972939819137037]}}, {"type": "Feature", "properties": {"norad_id": 54026, "name": "GALAXY 33 (G-33)", "group": "intelsat", "lat": 0.031681777108128535, "lon": 81.60568422206694, "alt_km": 35794.37456300844, "timestamp": "2025-12-13T08:49:15.361557+00:00", "meta": {"OBJECT_NAME": "GALAXY 33 (G-33)", "OBJECT_ID": "2022-128A", "EPOCH": "2025-12-12T13:45:28.888992", "MEAN_MOTION": 1.0027165, "ECCENTRICITY": 0.0001977, "INCLINATION": 0.014, "RA_OF_ASC_NODE": 337.915, "ARG_OF_PERICENTER": 278.0859, "MEAN_ANOMALY": 258.8878, "EPHEMERIS_TYPE": 0, "CLASSIFICATION_TYPE": "U", "NORAD_CAT_ID": 54026, "ELEMENT_SET_NO": 999, "REV_AT_EPOCH": 1187, "BSTAR": 0, "MEAN_MOTION_DOT": 9e-07, "MEAN_MOTION_DDOT": 0}, "tle": {"line1": "1 54026U 22128A   25346.57325103  .00000090  00000+0  00000+0 0  9995", "line2": "2 54026   0.0140 337.9150 0001977 278.0859 258.8878  1.00271650 11870"}}, "geometry": {"type": "Point", "coordinates": [81.60568422206694, 0.031681777108128535]}}, {"type": "Feature", "properties": {"norad_id": 54027, "name": "GALAXY 34 (G-34)", "group": "intelsat", "lat": 0.03958021169682901, "lon": 85.66955020260654, "alt_km": 35792.69056331995, "timestamp": "2025-12-13T08:49:15.361569+00:00", "meta": {"OBJECT_NAME": "GALAXY 34 (G-34)", "OBJECT_ID": "2022-128B", "EPOCH": "2025-12-12T23:08:24.017568", "MEAN_MOTION": 1.00270236, "ECCENTRICITY": 0.00015024, "INCLINATION": 0.0217, "RA_OF_ASC_NODE": 350.4111, "ARG_OF_PERICENTER": 262.7721, "MEAN_ANOMALY": 46.8882, "EPHEMERIS_TYPE": 0, "CLASSIFICATION_TYPE": "U", "NORAD_CAT_ID": 54027, "ELEMENT_SET_NO": 999, "REV_AT_EPOCH": 1204, "BSTAR": 0, "MEAN_MOTION_DOT": 0, "MEAN_MOTION_DDOT": 0}, "tle": {"line1": "1 54027U 22128B   25346.96416687  .00000000  00000+0  00000+0 0  9998", "line2": "2 54027   0.0217 350.4111 0001502 262.7721  46.8882  1.00270236 12044"}}, "geometry": {"type": "Point", "coordinates": [85.66955020260654, 0.03958021169682901]}}, {"type": "Feature", "properties": {"norad_id": 54243, "name": "GALAXY 31 (G-31)", "group": "intelsat", "lat": 0.025339681495817563, "lon": 93.59937238488432, "alt_km": 35792.961769649184, "timestamp": "2025-12-13T08:49:15.361580+00:00", "meta": {"OBJECT_NAME": "GALAXY 31 (G-31)", "OBJECT_ID": "2022-153A", "EPOCH": "2025-12-12T23:10:38.803296", "MEAN_MOTION": 1.00270384, "ECCENTRICITY": 0.00015405, "INCLINATION": 0.0122, "RA_OF_ASC_NODE": 325.0815, "ARG_OF_PERICENTER": 310.6896, "MEAN_ANOMALY": 32.7887, "EPHEMERIS_TYPE": 0, "CLASSIFICATION_TYPE": "U", "NORAD_CAT_ID": 54243, "ELEMENT_SET_NO": 999, "REV_AT_EPOCH": 526, "BSTAR": 0, "MEAN_MOTION_DOT": 0, "MEAN_MOTION_DDOT": 0}, "tle": {"line1": "1 54243U 22153A   25346.96572689  .00000000  00000+0  00000+0 0  9991", "line2": "2 54243   0.0122 325.0815 0001540 310.6896  32.7887  1.00270384  5265"}}, "geometry": {"type": "Point", "coordinates": [93.59937238488432, 0.025339681495817563]}}, {"type": "Feature", "properties": {"norad_id": 54244, "name": "GALAXY 32 (G-32)", "group": "intelsat", "lat": 0.02122489707518626, "lon": 123.61310233460985, "alt_km": 35796.78183403258, "timestamp": "2025-12-13T08:49:15.361592+00:00", "meta": {"OBJECT_NAME": "GALAXY 32 (G-32)", "OBJECT_ID": "2022-153B", "EPOCH": "2025-12-12T13:02:51.144864", "MEAN_MOTION": 1.00272099, "ECCENTRICITY": 0.00025848, "INCLINATION": 0.0111, "RA_OF_ASC_NODE": 11.8146, "ARG_OF_PERICENTER": 300.84, "MEAN_ANOMALY": 233.5475, "EPHEMERIS_TYPE": 0, "CLASSIFICATION_TYPE": "U", "NORAD_CAT_ID": 54244, "ELEMENT_SET_NO": 999, "REV_AT_EPOCH": 1127, "BSTAR": 0, "MEAN_MOTION_DOT": -1.63e-06, "MEAN_MOTION_DDOT": 0}, "tle": {"line1": "1 54244U 22153B   25346.54364751 -.00000163  00000+0  00000+0 0  9996", "line2": "2 54244   0.0111  11.8146 0002584 300.8400 233.5475  1.00272099 11279"}}, "geometry": {"type": "Point", "coordinates": [123.61310233460985, 0.02122489707518626]}}, {"type": "Feature", "properties": {"norad_id": 54741, "name": "GALAXY 35 (G-35)", "group": "intelsat", "lat": 0.0016606295217851943, "lon": 121.49759559057237, "alt_km": 35794.91634831999, "timestamp": "2025-12-13T08:49:15.361603+00:00", "meta": {"OBJECT_NAME": "GALAXY 35 (G-35)", "OBJECT_ID": "2022-170A", "EPOCH": "2025-12-12T23:18:38.037312", "MEAN_MOTION": 1.00271195, "ECCENTRICITY": 0.00024616, "INCLINATION": 0.0151, "RA_OF_ASC_NODE": 285.1885, "ARG_OF_PERICENTER": 342.5357, "MEAN_ANOMALY": 70.7514, "EPHEMERIS_TYPE": 0, "CLASSIFICATION_TYPE": "U", "NORAD_CAT_ID": 54741, "ELEMENT_SET_NO": 999, "REV_AT_EPOCH": 1102, "BSTAR": 0, "MEAN_MOTION_DOT": -1.5e-06, "MEAN_MOTION_DDOT": 0}, "tle": {"line1": "1 54741U 22170A   25346.97127358 -.00000150  00000+0  00000+0 0  9990", "line2": "2 54741   0.0151 285.1885 0002461 342.5357  70.7514  1.00271195 11023"}}, "geometry": {"type": "Point", "coordinates": [121.49759559057237, 0.0016606295217851943]}}, {"type": "Feature", "properties": {"norad_id": 54742, "name": "GALAXY 36 (G-36)", "group": "intelsat", "lat": 0.018545366377522625, "lon": 125.61096478895966, "alt_km": 35787.5269779539, "timestamp": "2025-12-13T08:49:15.361615+00:00", "meta": {"OBJECT_NAME": "GALAXY 36 (G-36)", "OBJECT_ID": "2022-170B", "EPOCH": "2025-12-12T23:19:45.430176", "MEAN_MOTION": 1.00272204, "ECCENTRICITY": 3.695e-05, "INCLINATION": 0.0377, "RA_OF_ASC_NODE": 139.458, "ARG_OF_PERICENTER": 158.0471, "MEAN_ANOMALY": 45.3488, "EPHEMERIS_TYPE": 0, "CLASSIFICATION_TYPE": "U", "NORAD_CAT_ID": 54742, "ELEMENT_SET_NO": 999, "REV_AT_EPOCH": 1090, "BSTAR": 0, "MEAN_MOTION_DOT": -1.72e-06, "MEAN_MOTION_DDOT": 0}, "tle": {"line1": "1 54742U 22170B   25346.97205359 -.00000172  00000+0  00000+0 0  9993", "line2": "2 54742   0.0377 139.4580 0000369 158.0471  45.3488  1.00272204 10905"}}, "geometry": {"type": "Point", "coordinates": [125.61096478895966, 0.018545366377522625]}}, {"type": "Feature", "properties": {"norad_id": 57493, "name": "GALAXY 37 (G-37)", "group": "intelsat", "lat": 0.023676327299787938, "lon": 87.6091651829175, "alt_km": 35795.06080946092, "timestamp": "2025-12-13T08:49:15.361626+00:00", "meta": {"OBJECT_NAME": "GALAXY 37 (G-37)", "OBJECT_ID": "2023-112A", "EPOCH": "2025-12-12T23:08:53.969856", "MEAN_MOTION": 1.00271846, "ECCENTRICITY": 0.00021331, "INCLINATION": 0.0148, "RA_OF_ASC_NODE": 36.9115, "ARG_OF_PERICENTER": 229.6492, "MEAN_ANOMALY": 35.5698, "EPHEMERIS_TYPE": 0, "CLASSIFICATION_TYPE": "U", "NORAD_CAT_ID": 57493, "ELEMENT_SET_NO": 999, "REV_AT_EPOCH": 867, "BSTAR": 0, "MEAN_MOTION_DOT": 6.1e-07, "MEAN_MOTION_DDOT": 0}, "tle": {"line1": "1 57493U 23112A   25346.96451354  .00000061  00000+0  00000+0 0  9999", "line2": "2 57493   0.0148  36.9115 0002133 229.6492  35.5698  1.00271846  8677"}}, "geometry": {"type": "Point", "coordinates": [87.6091651829175, 0.023676327299787938]}}]}